[{"OBJECT_NAME":"STARLINK-32144","OBJECT_ID":"2024-131Q","EPOCH":"2026-03-09T09:29:05.864928","MEAN_MOTION":15.30191179,"ECCENTRICITY":0.00011415,"INCLINATION":53.1601,"RA_OF_ASC_NODE":53.7883,"ARG_OF_PERICENTER":96.8101,"MEAN_ANOMALY":263.303,"EPHEMERIS_TYPE":0,"CLASSIFICATION_TYPE":"U","NORAD_CAT_ID":60269,"ELEMENT_SET_NO":999,"REV_AT_EPOCH":9172,"BSTAR":-1.0181405e-5,"MEAN_MOTION_DOT":-6.6e-6,"MEAN_MOTION_DDOT":0},{"OBJECT_NAME":"CZ-6A DEB","OBJECT_ID":"2024-140AAN","EPOCH":"2026-03-09T15:08:07.195776","MEAN_MOTION":15.20547394,"ECCENTRICITY":0.0064261,"INCLINATION":89.3669,"RA_OF_ASC_NODE":306.3092,"ARG_OF_PERICENTER":93.6352,"MEAN_ANOMALY":267.2246,"EPHEMERIS_TYPE":0,"CLASSIFICATION_TYPE":"U","NORAD_CAT_ID":61480,"ELEMENT_SET_NO":999,"REV_AT_EPOCH":8198,"BSTAR":0.0033609,"MEAN_MOTION_DOT":0.00078405,"MEAN_MOTION_DDOT":0}]
